start=new Date('2021-09-14T00:00:00.000Z').valueOf();
sats=[{"MEAN_MOTION":"15.06394997","APOAPSIS":"548.248","ECCENTRICITY":"0.00014720","TLE_LINE2":"2 47388  53.0541 213.9371 0001472  76.6200 283.4953 15.06394997 36186","REV_AT_EPOCH":"3618","OBJECT_NAME":"STARLINK-2109","TIME_SYSTEM":"UTC","GP_ID":"184664007","PERIAPSIS":"546.209","OBJECT_TYPE":"PAYLOAD","MEAN_ELEMENT_THEORY":"SGP4","RCS_SIZE":"LARGE","EPOCH":"2021-09-13T21:36:58.227552","DECAY_DATE":null,"FILE":"3115005","ARG_OF_PERICENTER":"76.6200","ELEMENT_SET_NO":"999","COUNTRY_CODE":"US","RA_OF_ASC_NODE":"213.9371","MEAN_MOTION_DDOT":"0.0000000000000","CENTER_NAME":"EARTH","NORAD_CAT_ID":"47388","OBJECT_ID":"2021-005AR","LAUNCH_DATE":"2021-01-20","BSTAR":"0.00003031600000","PERIOD":"95.592","CLASSIFICATION_TYPE":"U","TLE_LINE1":"1 47388U 21005AR  21256.90067393  .00000170  00000-0  30316-4 0  9996","SITE":"AFETR","INCLINATION":"53.0541","REF_FRAME":"TEME","SEMIMAJOR_AXIS":"6925.364","EPHEMERIS_TYPE":"0","MEAN_ANOMALY":"283.4953","MEAN_MOTION_DOT":"0.00000170"},{"MEAN_ELEMENT_THEORY":"SGP4","RCS_SIZE":"LARGE","EPOCH":"2021-09-13T05:12:22.284576","DECAY_DATE":null,"REV_AT_EPOCH":"3636","OBJECT_NAME":"STARLINK-2110","TIME_SYSTEM":"UTC","GP_ID":"184636531","PERIAPSIS":"545.997","OBJECT_TYPE":"PAYLOAD","ECCENTRICITY":"0.00017530","TLE_LINE2":"2 47389  53.0530 197.0074 0001753  61.5782 298.5384 15.06400788 36368","MEAN_MOTION":"15.06400788","APOAPSIS":"548.425","SEMIMAJOR_AXIS":"6925.346","REF_FRAME":"TEME","MEAN_ANOMALY":"298.5384","EPHEMERIS_TYPE":"0","MEAN_MOTION_DOT":"0.00000027","BSTAR":"0.00002069600000","LAUNCH_DATE":"2021-01-20","CLASSIFICATION_TYPE":"U","PERIOD":"95.592","TLE_LINE1":"1 47389U 21005AS  21256.21692459  .00000027  00000-0  20696-4 0  9999","SITE":"AFETR","INCLINATION":"53.0530","CENTER_NAME":"EARTH","NORAD_CAT_ID":"47389","OBJECT_ID":"2021-005AS","ARG_OF_PERICENTER":"61.5782","FILE":"3114796","ELEMENT_SET_NO":"999","RA_OF_ASC_NODE":"197.0074","COUNTRY_CODE":"US","MEAN_MOTION_DDOT":"0.0000000000000"},{"DECAY_DATE":null,"RCS_SIZE":"LARGE","EPOCH":"2021-09-13T20:59:48.761088","MEAN_ELEMENT_THEORY":"SGP4","OBJECT_TYPE":"PAYLOAD","PERIAPSIS":"545.992","GP_ID":"184663022","TIME_SYSTEM":"UTC","OBJECT_NAME":"STARLINK-2111","REV_AT_EPOCH":"3618","TLE_LINE2":"2 47390  53.0545 214.0428 0001780  64.8021 295.3153 15.06396443 36182","ECCENTRICITY":"0.00017800","APOAPSIS":"548.457","MEAN_MOTION":"15.06396443","MEAN_MOTION_DOT":"-0.00000546","MEAN_ANOMALY":"295.3153","EPHEMERIS_TYPE":"0","REF_FRAME":"TEME","SEMIMAJOR_AXIS":"6925.359","INCLINATION":"53.0545","SITE":"AFETR","TLE_LINE1":"1 47390U 21005AT  21256.87486992 -.00000546  00000-0 -17751-4 0  9992","CLASSIFICATION_TYPE":"U","PERIOD":"95.592","LAUNCH_DATE":"2021-01-20","BSTAR":"-0.00001775100000","OBJECT_ID":"2021-005AT","NORAD_CAT_ID":"47390","CENTER_NAME":"EARTH","MEAN_MOTION_DDOT":"0.0000000000000","RA_OF_ASC_NODE":"214.0428","COUNTRY_CODE":"US","ELEMENT_SET_NO":"999","ARG_OF_PERICENTER":"64.8021","FILE":"3115005"},{"MEAN_ANOMALY":"305.5643","EPHEMERIS_TYPE":"0","REF_FRAME":"TEME","SEMIMAJOR_AXIS":"6925.357","MEAN_MOTION_DOT":"-0.00004215","PERIOD":"95.592","CLASSIFICATION_TYPE":"U","LAUNCH_DATE":"2021-01-20","BSTAR":"-0.00026426000000","INCLINATION":"53.0540","SITE":"AFETR","TLE_LINE1":"1 47391U 21005AU  21256.88406386 -.00004215  00000-0 -26426-3 0  9998","NORAD_CAT_ID":"47391","CENTER_NAME":"EARTH","OBJECT_ID":"2021-005AU","FILE":"3115005","ARG_OF_PERICENTER":"54.5513","MEAN_MOTION_DDOT":"0.0000000000000","COUNTRY_CODE":"US","RA_OF_ASC_NODE":"184.0073","ELEMENT_SET_NO":"999","MEAN_ELEMENT_THEORY":"SGP4","DECAY_DATE":null,"RCS_SIZE":"LARGE","EPOCH":"2021-09-13T21:13:03.117504","TIME_SYSTEM":"UTC","OBJECT_NAME":"STARLINK-2112","REV_AT_EPOCH":"3660","OBJECT_TYPE":"PAYLOAD","PERIAPSIS":"545.982","GP_ID":"184663774","TLE_LINE2":"2 47391  53.0540 184.0073 0001791  54.5513 305.5643 15.06397195 36604","ECCENTRICITY":"0.00017910","MEAN_MOTION":"15.06397195","APOAPSIS":"548.462"},{"MEAN_MOTION_DOT":"-0.00000245","REF_FRAME":"TEME","SEMIMAJOR_AXIS":"6925.343","EPHEMERIS_TYPE":"0","MEAN_ANOMALY":"304.2315","TLE_LINE1":"1 47392U 21005AV  21256.88499736 -.00000245  00000-0  24902-5 0  9997","SITE":"AFETR","INCLINATION":"53.0532","BSTAR":"0.00000249020000","LAUNCH_DATE":"2021-01-20","CLASSIFICATION_TYPE":"U","PERIOD":"95.592","OBJECT_ID":"2021-005AV","CENTER_NAME":"EARTH","NORAD_CAT_ID":"47392","ELEMENT_SET_NO":"999","RA_OF_ASC_NODE":"184.0069","COUNTRY_CODE":"US","MEAN_MOTION_DDOT":"0.0000000000000","ARG_OF_PERICENTER":"55.8861","FILE":"3115005","RCS_SIZE":"LARGE","EPOCH":"2021-09-13T21:14:23.771904","DECAY_DATE":null,"MEAN_ELEMENT_THEORY":"SGP4","GP_ID":"184664508","PERIAPSIS":"545.836","OBJECT_TYPE":"PAYLOAD","REV_AT_EPOCH":"3660","OBJECT_NAME":"STARLINK-2113","TIME_SYSTEM":"UTC","ECCENTRICITY":"0.00019810","TLE_LINE2":"2 47392  53.0532 184.0069 0001981  55.8861 304.2315 15.06401828 36603","APOAPSIS":"548.580","MEAN_MOTION":"15.06401828"},{"OBJECT_ID":"2021-005AW","NORAD_CAT_ID":"47393","CENTER_NAME":"EARTH","MEAN_MOTION_DDOT":"0.0000000000000","RA_OF_ASC_NODE":"162.3920","COUNTRY_CODE":"US","ELEMENT_SET_NO":"999","FILE":"3114796","ARG_OF_PERICENTER":"72.5611","MEAN_MOTION_DOT":"0.00000936","MEAN_ANOMALY":"287.5620","EPHEMERIS_TYPE":"0","SEMIMAJOR_AXIS":"6925.361","REF_FRAME":"TEME","INCLINATION":"53.0392","SITE":"AFETR","TLE_LINE1":"1 47393U 21005AW  21256.14732609  .00000936  00000-0  81770-4 0  9997","PERIOD":"95.592","CLASSIFICATION_TYPE":"U","BSTAR":"0.00008177000000","LAUNCH_DATE":"2021-01-20","TLE_LINE2":"2 47393  53.0392 162.3920 0002213  72.5611 287.5620 15.06395995 36846","ECCENTRICITY":"0.00022130","APOAPSIS":"548.758","MEAN_MOTION":"15.06395995","DECAY_DATE":null,"RCS_SIZE":"LARGE","EPOCH":"2021-09-13T03:32:08.974176","MEAN_ELEMENT_THEORY":"SGP4","OBJECT_TYPE":"PAYLOAD","PERIAPSIS":"545.693","GP_ID":"184636032","TIME_SYSTEM":"UTC","OBJECT_NAME":"STARLINK-2114","REV_AT_EPOCH":"3684"},{"INCLINATION":"53.0572","SITE":"AFETR","TLE_LINE1":"1 47394U 21005AX  21256.76104042  .00001124  00000-0  94402-4 0  9996","PERIOD":"95.593","CLASSIFICATION_TYPE":"U","BSTAR":"0.00009440200000","LAUNCH_DATE":"2021-01-20","MEAN_MOTION_DOT":"0.00001124","EPHEMERIS_TYPE":"0","MEAN_ANOMALY":"312.6725","REF_FRAME":"TEME","SEMIMAJOR_AXIS":"6925.367","MEAN_MOTION_DDOT":"0.0000000000000","COUNTRY_CODE":"US","RA_OF_ASC_NODE":"179.5706","ELEMENT_SET_NO":"999","ARG_OF_PERICENTER":"47.4442","FILE":"3115005","OBJECT_ID":"2021-005AX","NORAD_CAT_ID":"47394","CENTER_NAME":"EARTH","OBJECT_TYPE":"PAYLOAD","PERIAPSIS":"545.767","GP_ID":"184663523","TIME_SYSTEM":"UTC","OBJECT_NAME":"STARLINK-2115","REV_AT_EPOCH":"3666","DECAY_DATE":null,"RCS_SIZE":"LARGE","EPOCH":"2021-09-13T18:15:53.892288","MEAN_ELEMENT_THEORY":"SGP4","APOAPSIS":"548.697","MEAN_MOTION":"15.06393974","TLE_LINE2":"2 47394  53.0572 179.5706 0002116  47.4442 312.6725 15.06393974 36665","ECCENTRICITY":"0.00021160"},{"DECAY_DATE":null,"EPOCH":"2021-09-13T20:43:53.109696","RCS_SIZE":"LARGE","MEAN_ELEMENT_THEORY":"SGP4","OBJECT_TYPE":"PAYLOAD","PERIAPSIS":"545.847","GP_ID":"184664275","TIME_SYSTEM":"UTC","OBJECT_NAME":"STARLINK-2117","REV_AT_EPOCH":"3674","TLE_LINE2":"2 47395  53.0555 174.0938 0001994  58.5899 301.5285 15.06395284 36749","ECCENTRICITY":"0.00019940","APOAPSIS":"548.609","MEAN_MOTION":"15.06395284","MEAN_MOTION_DOT":"-0.00000007","EPHEMERIS_TYPE":"0","MEAN_ANOMALY":"301.5285","SEMIMAJOR_AXIS":"6925.363","REF_FRAME":"TEME","INCLINATION":"53.0555","SITE":"AFETR","TLE_LINE1":"1 47395U 21005AY  21256.86380914 -.00000007  00000-0  18421-4 0  9999","PERIOD":"95.592","CLASSIFICATION_TYPE":"U","LAUNCH_DATE":"2021-01-20","BSTAR":"0.00001842100000","OBJECT_ID":"2021-005AY","NORAD_CAT_ID":"47395","CENTER_NAME":"EARTH","MEAN_MOTION_DDOT":"0.0000000000000","RA_OF_ASC_NODE":"174.0938","COUNTRY_CODE":"US","ELEMENT_SET_NO":"999","ARG_OF_PERICENTER":"58.5899","FILE":"3115005"},{"TIME_SYSTEM":"UTC","OBJECT_NAME":"STARLINK-2118","REV_AT_EPOCH":"3660","OBJECT_TYPE":"PAYLOAD","PERIAPSIS":"545.847","GP_ID":"184664008","MEAN_ELEMENT_THEORY":"SGP4","DECAY_DATE":null,"RCS_SIZE":"LARGE","EPOCH":"2021-09-13T20:10:42.328416","MEAN_MOTION":"15.06402360","APOAPSIS":"548.566","TLE_LINE2":"2 47396  53.0556 184.2006 0001963  56.0636 304.0539 15.06402360 36607","ECCENTRICITY":"0.00019630","PERIOD":"95.592","CLASSIFICATION_TYPE":"U","BSTAR":"0.00005522800000","LAUNCH_DATE":"2021-01-20","INCLINATION":"53.0556","SITE":"AFETR","TLE_LINE1":"1 47396U 21005AZ  21256.84076769  .00000541  00000-0  55228-4 0  9996","MEAN_ANOMALY":"304.0539","EPHEMERIS_TYPE":"0","SEMIMAJOR_AXIS":"6925.341","REF_FRAME":"TEME","MEAN_MOTION_DOT":"0.00000541","FILE":"3115005","ARG_OF_PERICENTER":"56.0636","MEAN_MOTION_DDOT":"0.0000000000000","COUNTRY_CODE":"US","RA_OF_ASC_NODE":"184.2006","ELEMENT_SET_NO":"999","NORAD_CAT_ID":"47396","CENTER_NAME":"EARTH","OBJECT_ID":"2021-005AZ"},{"ECCENTRICITY":"0.00015100","TLE_LINE2":"2 47397  53.0552 213.9319 0001510  65.5709 294.5437 15.06397181 36193","APOAPSIS":"548.268","MEAN_MOTION":"15.06397181","DECAY_DATE":null,"RCS_SIZE":"LARGE","EPOCH":"2021-09-13T21:42:16.785216","MEAN_ELEMENT_THEORY":"SGP4","GP_ID":"184662773","OBJECT_TYPE":"PAYLOAD","PERIAPSIS":"546.176","REV_AT_EPOCH":"3619","TIME_SYSTEM":"UTC","OBJECT_NAME":"STARLINK-2119","OBJECT_ID":"2021-005BA","CENTER_NAME":"EARTH","NORAD_CAT_ID":"47397","COUNTRY_CODE":"US","RA_OF_ASC_NODE":"213.9319","ELEMENT_SET_NO":"999","MEAN_MOTION_DDOT":"0.0000000000000","FILE":"3115005","ARG_OF_PERICENTER":"65.5709","MEAN_MOTION_DOT":"-0.00000756","EPHEMERIS_TYPE":"0","MEAN_ANOMALY":"294.5437","SEMIMAJOR_AXIS":"6925.357","REF_FRAME":"TEME","SITE":"AFETR","TLE_LINE1":"1 47397U 21005BA  21256.90436094 -.00000756  00000-0 -31866-4 0  9997","INCLINATION":"53.0552","BSTAR":"-0.00003186600000","LAUNCH_DATE":"2021-01-20","PERIOD":"95.592","CLASSIFICATION_TYPE":"U"}];
